NORAD_CAT_ID,OBJECT_NAME,OBJECT_TYPE,EPOCH,MEAN_MOTION,ECCENTRICITY,INCLINATION,RA_OF_ASC_NODE,ARG_OF_PERICENTER,MEAN_ANOMALY,BSTAR,MEAN_MOTION_DOT,MEAN_MOTION_DDOT,TLE_LINE0,TLE_LINE1,TLE_LINE2,SEMIMAJOR_AXIS,PERIOD,APOGEE,PERIGEE,DECAYED
55771.0,STARLINK-5591,PAYLOAD,2024-02-11 21:34:48,14.98322413,0.0002323,70.0016,332.5799,263.6832,96.4062,0.00017614,2.009e-05,0.0,0 STARLINK-5591,1 55771U 23028AG  24042.89917630  .00002009  00000-0  17614-3 0  9998,2 55771  70.0016 332.5799 0002323 263.6832  96.4062 14.98322413 53179,6950.216,96.107,573.696,570.467,0.0
55771.0,STARLINK-5591,PAYLOAD,2024-02-12 05:35:28,14.9833108,0.0002135,70.0021,331.7381,254.5415,105.5508,0.00018306,2.092e-05,0.0,0 STARLINK-5591,1 55771U 23028AG  24043.23297131  .00002092  00000-0  18306-3 0  9995,2 55771  70.0021 331.7381 0002135 254.5415 105.5508 14.98331080 53223,6950.19,96.107,573.538,570.571,0.0
55771.0,STARLINK-5591,PAYLOAD,2024-02-12 20:00:41,14.98326439,0.0002176,70.0041,330.2233,227.9895,132.1079,-7.3143e-06,-1.8e-06,0.0,0 STARLINK-5591,1 55771U 23028AG  24043.83381757 -.00000180  00000-0 -73143-5 0  9999,2 55771  70.0041 330.2233 0002176 227.9895 132.1079 14.98326439 53317,6950.204,96.107,573.581,570.557,0.0
55771.0,STARLINK-5591,PAYLOAD,2024-02-12 21:36:49,14.98328323,0.000238,70.0023,330.056,232.349,127.7453,-6.0565e-05,-8.15e-06,0.0,0 STARLINK-5591,1 55771U 23028AG  24043.90057786 -.00000815  00000-0 -60565-4 0  9997,2 55771  70.0023 330.0560 0002380 232.3490 127.7453 14.98328323 53327,6950.198,96.107,573.717,570.409,0.0
55771.0,STARLINK-5591,PAYLOAD,2024-02-13 12:02:02,14.98328115,0.0002423,70.0018,328.54,259.802,100.2866,-0.00014805,-1.859e-05,0.0,0 STARLINK-5591,1 55771U 23028AG  24044.50142240 -.00001859  00000-0 -14805-3 0  9998,2 55771  70.0018 328.5400 0002423 259.8020 100.2866 14.98328115 53410,6950.199,96.107,573.748,570.38,0.0
55771.0,STARLINK-5591,PAYLOAD,2024-02-13 20:02:42,14.9832955,0.0003147,69.9999,327.6974,271.1124,88.9674,-1.8199e-05,-3.1e-06,0.0,0 STARLINK-5591,1 55771U 23028AG  24044.83521737 -.00000310  00000-0 -18199-4 0  9998,2 55771  69.9999 327.6974 0003147 271.1124  88.9674 14.98329550 53465,6950.194,96.107,574.247,569.872,0.0
55771.0,STARLINK-5591,PAYLOAD,2024-02-13 21:38:50,14.98330325,0.0003082,70.0002,327.529,270.0608,90.0197,-4.8331e-06,-1.51e-06,0.0,0 STARLINK-5591,1 55771U 23028AG  24044.90197656 -.00000151  00000-0 -48331-5 0  9990,2 55771  70.0002 327.5290 0003082 270.0608  90.0197 14.98330325 53473,6950.192,96.107,574.199,569.915,0.0
55771.0,STARLINK-5591,PAYLOAD,2024-02-14 04:03:22,14.98337348,0.0002895,70.0006,326.8561,267.9544,92.1283,8.5748e-05,9.3e-06,0.0,0 STARLINK-5591,1 55771U 23028AG  24045.16900920  .00000930  00000-0  85748-4 0  9990,2 55771  70.0006 326.8561 0002895 267.9544  92.1283 14.98337348 53511,6950.17,96.107,574.047,570.023,0.0
55771.0,STARLINK-5591,PAYLOAD,2024-02-14 12:04:03,14.98333671,0.0002016,70.0026,326.0132,287.5989,72.495,-6.6759e-05,-8.89e-06,0.0,0 STARLINK-5591,1 55771U 23028AG  24045.50281759 -.00000889  00000-0 -66759-4 0  9996,2 55771  70.0026 326.0132 0002016 287.5989  72.4950 14.98333671 53567,6950.182,96.107,573.448,570.645,0.0
55771.0,STARLINK-5591,PAYLOAD,2024-02-14 18:28:35,14.98326251,0.00027,69.9996,325.3405,274.0577,86.0273,3.903e-05,3.73e-06,0.0,0 STARLINK-5591,1 55771U 23028AG  24045.76985826  .00000373  00000-0  39030-4 0  9998,2 55771  69.9996 325.3405 0002700 274.0577  86.0273 14.98326251 53609,6950.204,96.107,573.946,570.193,0.0
55771.0,STARLINK-5591,PAYLOAD,2024-02-14 21:40:52,14.98320629,0.0002758,69.9991,325.0016,275.1832,84.9012,7.5522e-05,8.08e-06,0.0,0 STARLINK-5591,1 55771U 23028AG  24045.90338064  .00000808  00000-0  75522-4 0  9999,2 55771  69.9991 325.0016 0002758 275.1832  84.9012 14.98320629 53621,6950.222,96.108,574.004,570.17,0.0
55771.0,STARLINK-5591,PAYLOAD,2024-02-15 04:05:24,14.98319967,0.0002348,70.0013,324.3296,266.6747,93.4143,0.00010959,1.215e-05,0.0,0 STARLINK-5591,1 55771U 23028AG  24046.17042184  .00001215  00000-0  10959-3 0  9999,2 55771  70.0013 324.3296 0002348 266.6747  93.4143 14.98319967 53663,6950.224,96.108,573.721,570.457,0.0
55771.0,STARLINK-5591,PAYLOAD,2024-02-15 20:06:45,14.98328041,0.00027,70.0012,322.6499,274.5592,85.5258,4.3992e-06,-4e-07,0.0,0 STARLINK-5591,1 55771U 23028AG  24046.83802123 -.00000040  00000-0  43992-5 0  9990,2 55771  70.0012 322.6499 0002700 274.5592  85.5258 14.98328041 53769,6950.199,96.107,573.941,570.187,0.0
55771.0,STARLINK-5591,PAYLOAD,2024-02-16 12:08:05,14.98336781,0.0002711,70.0006,320.9634,270.3086,89.7763,-5.9198e-05,-7.99e-06,0.0,0 STARLINK-5591,1 55771U 23028AG  24047.50561552 -.00000799  00000-0 -59198-4 0  9999,2 55771  70.0006 320.9634 0002711 270.3086  89.7763 14.98336781 53866,6950.172,96.107,573.921,570.153,0.0
55771.0,STARLINK-5591,PAYLOAD,2024-02-16 20:08:45,14.98315614,0.0002794,70.0003,320.122,269.7964,90.2875,0.00031355,3.649e-05,0.0,0 STARLINK-5591,1 55771U 23028AG  24047.83941897  .00003649  00000-0  31355-3 0  9998,2 55771  70.0003 320.1220 0002794 269.7964  90.2875 14.98315614 53913,6950.237,96.108,574.044,570.16,0.0
55771.0,STARLINK-5591,PAYLOAD,2024-02-16 21:44:53,14.98316455,0.0002791,70.0003,319.9537,269.8344,90.2495,0.00030064,3.495e-05,0.0,0 STARLINK-5591,1 55771U 23028AG  24047.90617924  .00003495  00000-0  30064-3 0  9992,2 55771  70.0003 319.9537 0002791 269.8344  90.2495 14.98316455 53923,6950.235,96.108,574.04,570.16,0.0
55771.0,STARLINK-5591,PAYLOAD,2024-02-17 04:09:25,14.98335125,0.0002798,70.0003,319.2809,269.8552,90.2286,0.00010414,1.15e-05,0.0,0 STARLINK-5591,1 55771U 23028AG  24048.17321146  .00001150  00000-0  10414-3 0  9993,2 55771  70.0003 319.2809 0002798 269.8552  90.2286 14.98335125 53963,6950.177,96.107,573.987,570.097,0.0
55771.0,STARLINK-5591,PAYLOAD,2024-02-17 20:10:46,14.98328268,0.0002644,70.0004,317.5977,270.6056,89.48,-5.2698e-05,-7.22e-06,0.0,0 STARLINK-5591,1 55771U 23028AG  24048.84082041 -.00000722  00000-0 -52698-4 0  9992,2 55771  70.0004 317.5977 0002644 270.6056  89.4800 14.98328268 54064,6950.198,96.107,573.901,570.226,0.0
55771.0,STARLINK-5591,PAYLOAD,2024-02-17 21:46:54,14.98326388,0.0002732,70.0004,317.4294,270.0574,90.0272,-2.899e-05,-4.39e-06,0.0,0 STARLINK-5591,1 55771U 23028AG  24048.90758079 -.00000439  00000-0 -28990-4 0  9993,2 55771  70.0004 317.4294 0002732 270.0574  90.0272 14.98326388 54075,6950.204,96.107,573.968,570.17,0.0
55771.0,STARLINK-5591,PAYLOAD,2024-02-18 10:35:58,14.9834957,0.0002587,70.0009,316.0841,265.0105,95.0758,-0.00035825,-4.367e-05,0.0,0 STARLINK-5591,1 55771U 23028AG  24049.44165251 -.00004367  00000-0 -35825-3 0  9995,2 55771  70.0009 316.0841 0002587 265.0105  95.0758 14.98349570 54156,6950.132,96.106,573.795,570.199,0.0
55771.0,STARLINK-5591,PAYLOAD,2024-02-18 20:12:47,14.98332955,0.0002676,69.9999,315.0732,267.4969,92.5883,3.5797e-06,-5e-07,0.0,0 STARLINK-5591,1 55771U 23028AG  24049.84221407 -.00000050  00000-0  35797-5 0  9999,2 55771  69.9999 315.0732 0002676 267.4969  92.5883 14.98332955 54219,6950.184,96.107,573.909,570.189,0.0
55771.0,STARLINK-5591,PAYLOAD,2024-02-18 23:25:03,14.98333544,0.0002636,70.0001,314.7365,267.1539,92.9318,3.2039e-05,2.89e-06,0.0,0 STARLINK-5591,1 55771U 23028AG  24049.97573257  .00000289  00000-0  32039-4 0  9994,2 55771  70.0001 314.7365 0002636 267.1539  92.9318 14.98333544 54234,6950.182,96.107,573.879,570.215,0.0
55771.0,STARLINK-5591,PAYLOAD,2024-02-19 10:38:00,14.98331491,0.00027,69.9998,313.5589,267.7916,92.2934,-9.9784e-05,-1.283e-05,0.0,0 STARLINK-5591,1 55771U 23028AG  24050.44305608 -.00001283  00000-0 -99784-4 0  9998,2 55771  69.9998 313.5589 0002700 267.7916  92.2934 14.98331491 54302,6950.188,96.107,573.93,570.177,0.0
55771.0,STARLINK-5591,PAYLOAD,2024-02-19 20:14:48,14.98322571,0.000267,69.9998,312.5486,260.9544,99.1313,-4.9455e-05,-6.83e-06,0.0,0 STARLINK-5591,1 55771U 23028AG  24050.84362160 -.00000683  00000-0 -49455-4 0  9991,2 55771  69.9998 312.5486 0002670 260.9544  99.1313 14.98322571 54367,6950.216,96.107,573.937,570.225,0.0
55771.0,STARLINK-5591,PAYLOAD,2024-02-19 23:27:05,14.98320918,0.0002571,70.0005,312.2124,256.2486,103.8387,-4.5939e-05,-6.41e-06,0.0,0 STARLINK-5591,1 55771U 23028AG  24050.97714304 -.00000641  00000-0 -45939-4 0  9993,2 55771  70.0005 312.2124 0002571 256.2486 103.8387 14.98320918 54387,6950.221,96.108,573.873,570.299,0.0
55771.0,STARLINK-5591,PAYLOAD,2024-02-20 10:40:01,14.98330663,0.0002857,69.9995,311.0333,270.3551,89.7281,-5.7806e-05,-7.83e-06,0.0,0 STARLINK-5591,1 55771U 23028AG  24051.44445849 -.00000783  00000-0 -57806-4 0  9994,2 55771  69.9995 311.0333 0002857 270.3551  89.7281 14.98330663 54459,6950.191,96.107,574.042,570.07,0.0
55771.0,STARLINK-5591,PAYLOAD,2024-02-20 21:52:57,14.9833134,0.000286,69.9995,309.8553,268.5476,91.5355,2.5531e-05,2.12e-06,0.0,0 STARLINK-5591,1 55771U 23028AG  24051.91177583  .00000212  00000-0  25531-4 0  9998,2 55771  69.9995 309.8553 0002860 268.5476  91.5355 14.98331340 54521,6950.189,96.107,574.042,570.066,0.0
55771.0,STARLINK-5591,PAYLOAD,2024-02-21 02:41:21,14.98337023,0.0002852,69.9995,309.3504,269.4502,90.6331,5.2617e-05,5.35e-06,0.0,0 STARLINK-5591,1 55771U 23028AG  24052.11205103  .00000535  00000-0  52617-4 0  9994,2 55771  69.9995 309.3504 0002852 269.4502  90.6331 14.98337023 54554,6950.171,96.107,574.018,570.054,0.0
55771.0,STARLINK-5591,PAYLOAD,2024-02-21 10:42:01,14.98330636,0.0002767,69.9994,308.5067,271.4203,88.6639,5.0435e-05,5.09e-06,0.0,0 STARLINK-5591,1 55771U 23028AG  24052.44585464  .00000509  00000-0  50435-4 0  9998,2 55771  69.9994 308.5067 0002767 271.4203  88.6639 14.98330636 54601,6950.191,96.107,573.979,570.133,0.0
55771.0,STARLINK-5591,PAYLOAD,2024-02-21 20:18:50,14.98324764,0.0002944,69.9989,307.4972,269.9613,90.1208,7.529e-05,8.05e-06,0.0,0 STARLINK-5591,1 55771U 23028AG  24052.84641749  .00000805  00000-0  75290-4 0  9996,2 55771  69.9989 307.4972 0002944 269.9613  90.1208 14.98324764 54663,6950.209,96.107,574.12,570.028,0.0
